{
  "type": "FeatureCollection",
  "features": [
    {
      "type": "Feature",
      "properties": {
        "norad_id": 30495,
        "name": "FENGYUN 1C DEB",
        "group": "fengyun-1c-debris",
        "lat": 30.61624822948643,
        "lon": 79.29048573355627,
        "alt_km": 1648.7395464133506,
        "timestamp": "2025-12-22T16:55:17.739922+00:00",
        "meta_object_name": "FENGYUN 1C DEB",
        "meta_object_id": "1999-025AHH",
        "meta_epoch": "2025-12-22T00:03:11.720736",
        "meta_mean_motion": 12.94419585,
        "meta_eccentricity": 0.05976903,
        "meta_inclination": 102.2599,
        "meta_ra_of_asc_node": 85.8959,
        "meta_arg_of_pericenter": 247.7478,
        "meta_mean_anomaly": 105.9203,
        "meta_ephemeris_type": 0,
        "meta_classification_type": "U",
        "meta_norad_cat_id": 30495,
        "meta_element_set_no": 999,
        "meta_rev_at_epoch": 88793,
        "meta_bstar": 0.0034452376,
        "meta_mean_motion_dot": 2.107e-05,
        "meta_mean_motion_ddot": 0,
        "tle_line1": "1 30495U 99025AHH 25356.00221899  .00002107  00000+0  34452-2 0  9997",
        "tle_line2": "2 30495 102.2599  85.8959 0597690 247.7478 105.9203 12.94419585887933"
      },
      "geometry": {
        "type": "Point",
        "coordinates": [
          79.29048573355627,
          30.61624822948643
        ]
      }
    },
    {
      "type": "Feature",
      "properties": {
        "norad_id": 30496,
        "name": "FENGYUN 1C DEB",
        "group": "fengyun-1c-debris",
        "lat": -41.64739076024078,
        "lon": 75.81890504005763,
        "alt_km": 673.8988395875031,
        "timestamp": "2025-12-22T16:55:17.739933+00:00",
        "meta_object_name": "FENGYUN 1C DEB",
        "meta_object_id": "1999-025AHJ",
        "meta_epoch": "2025-12-22T04:41:25.204704",
        "meta_mean_motion": 14.94381292,
        "meta_eccentricity": 0.01300099,
        "meta_inclination": 98.7843,
        "meta_ra_of_asc_node": 263.1533,
        "meta_arg_of_pericenter": 66.9898,
        "meta_mean_anomaly": 294.4971,
        "meta_ephemeris_type": 0,
        "meta_classification_type": "U",
        "meta_norad_cat_id": 30496,
        "meta_element_set_no": 999,
        "meta_rev_at_epoch": 1285,
        "meta_bstar": 0.00060101563,
        "meta_mean_motion_dot": 7.577e-05,
        "meta_mean_motion_ddot": 0,
        "tle_line1": "1 30496U 99025AHJ 25356.19543061  .00007577  00000+0  60102-3 0  9994",
        "tle_line2": "2 30496  98.7843 263.1533 0130009  66.9898 294.4971 14.94381292 12850"
      },
      "geometry": {
        "type": "Point",
        "coordinates": [
          75.81890504005763,
          -41.64739076024078
        ]
      }
    },
    {
      "type": "Feature",
      "properties": {
        "norad_id": 30498,
        "name": "FENGYUN 1C DEB",
        "group": "fengyun-1c-debris",
        "lat": 58.78114697892258,
        "lon": 32.45322787633377,
        "alt_km": 838.7047973532653,
        "timestamp": "2025-12-22T16:55:17.739943+00:00",
        "meta_object_name": "FENGYUN 1C DEB",
        "meta_object_id": "1999-025AHL",
        "meta_epoch": "2025-12-21T09:56:54.718944",
        "meta_mean_motion": 14.0611368,
        "meta_eccentricity": 0.01039693,
        "meta_inclination": 99.2381,
        "meta_ra_of_asc_node": 46.714,
        "meta_arg_of_pericenter": 132.2321,
        "meta_mean_anomaly": 239.7907,
        "meta_ephemeris_type": 0,
        "meta_classification_type": "U",
        "meta_norad_cat_id": 30498,
        "meta_element_set_no": 999,
        "meta_rev_at_epoch": 95891,
        "meta_bstar": 0.0012820954,
        "meta_mean_motion_dot": 2.166e-05,
        "meta_mean_motion_ddot": 0,
        "tle_line1": "1 30498U 99025AHL 25355.41452221  .00002166  00000+0  12821-2 0  9990",
        "tle_line2": "2 30498  99.2381  46.7140 0103969 132.2321 239.7907 14.06113680958911"
      },
      "geometry": {
        "type": "Point",
        "coordinates": [
          32.45322787633377,
          58.78114697892258
        ]
      }
    },
    {
      "type": "Feature",
      "properties": {
        "norad_id": 30500,
        "name": "FENGYUN 1C DEB",
        "group": "fengyun-1c-debris",
        "lat": -65.3305565946378,
        "lon": -111.82248659388877,
        "alt_km": 857.3605819568857,
        "timestamp": "2025-12-22T16:55:17.739954+00:00",
        "meta_object_name": "FENGYUN 1C DEB",
        "meta_object_id": "1999-025AHN",
        "meta_epoch": "2025-12-22T05:55:19.778016",
        "meta_mean_motion": 14.25293988,
        "meta_eccentricity": 0.00636429,
        "meta_inclination": 99.0725,
        "meta_ra_of_asc_node": 88.0617,
        "meta_arg_of_pericenter": 89.1396,
        "meta_mean_anomaly": 327.2115,
        "meta_ephemeris_type": 0,
        "meta_classification_type": "U",
        "meta_norad_cat_id": 30500,
        "meta_element_set_no": 999,
        "meta_rev_at_epoch": 96817,
        "meta_bstar": 0.0023340816,
        "meta_mean_motion_dot": 5.569e-05,
        "meta_mean_motion_ddot": 0,
        "tle_line1": "1 30500U 99025AHN 25356.24675669  .00005569  00000+0  23341-2 0  9998",
        "tle_line2": "2 30500  99.0725  88.0617 0063642  89.1396 327.2115 14.25293988968172"
      },
      "geometry": {
        "type": "Point",
        "coordinates": [
          -111.82248659388877,
          -65.3305565946378
        ]
      }
    },
    {
      "type": "Feature",
      "properties": {
        "norad_id": 30501,
        "name": "FENGYUN 1C DEB",
        "group": "fengyun-1c-debris",
        "lat": -18.39816333875248,
        "lon": 164.81014886664718,
        "alt_km": 785.5749534229772,
        "timestamp": "2025-12-22T16:55:17.739965+00:00",
        "meta_object_name": "FENGYUN 1C DEB",
        "meta_object_id": "1999-025AHP",
        "meta_epoch": "2025-12-19T22:33:08.390016",
        "meta_mean_motion": 14.25388409,
        "meta_eccentricity": 0.004063,
        "meta_inclination": 99.0839,
        "meta_ra_of_asc_node": 344.9981,
        "meta_arg_of_pericenter": 181.6968,
        "meta_mean_anomaly": 234.2134,
        "meta_ephemeris_type": 0,
        "meta_classification_type": "U",
        "meta_norad_cat_id": 30501,
        "meta_element_set_no": 999,
        "meta_rev_at_epoch": 97022,
        "meta_bstar": 0.0010657,
        "meta_mean_motion_dot": 2.488e-05,
        "meta_mean_motion_ddot": 0,
        "tle_line1": "1 30501U 99025AHP 25353.93968044  .00002488  00000+0  10657-2 0  9997",
        "tle_line2": "2 30501  99.0839 344.9981 0040630 181.6968 234.2134 14.25388409970222"
      },
      "geometry": {
        "type": "Point",
        "coordinates": [
          164.81014886664718,
          -18.39816333875248
        ]
      }
    },
    {
      "type": "Feature",
      "properties": {
        "norad_id": 30503,
        "name": "FENGYUN 1C DEB",
        "group": "fengyun-1c-debris",
        "lat": 78.46354083882025,
        "lon": 147.96226155050488,
        "alt_km": 836.4425524540839,
        "timestamp": "2025-12-22T16:55:17.739975+00:00",
        "meta_object_name": "FENGYUN 1C DEB",
        "meta_object_id": "1999-025AHR",
        "meta_epoch": "2025-12-22T06:39:08.932608",
        "meta_mean_motion": 14.16135081,
        "meta_eccentricity": 0.00083103,
        "meta_inclination": 99.204,
        "meta_ra_of_asc_node": 200.1144,
        "meta_arg_of_pericenter": 237.4384,
        "meta_mean_anomaly": 185.4778,
        "meta_ephemeris_type": 0,
        "meta_classification_type": "U",
        "meta_norad_cat_id": 30503,
        "meta_element_set_no": 999,
        "meta_rev_at_epoch": 97481,
        "meta_bstar": 0.00025877975,
        "meta_mean_motion_dot": 4.64e-06,
        "meta_mean_motion_ddot": 0,
        "tle_line1": "1 30503U 99025AHR 25356.27718672  .00000464  00000+0  25878-3 0  9993",
        "tle_line2": "2 30503  99.2040 200.1144 0008310 237.4384 185.4778 14.16135081974811"
      },
      "geometry": {
        "type": "Point",
        "coordinates": [
          147.96226155050488,
          78.46354083882025
        ]
      }
    },
    {
      "type": "Feature",
      "properties": {
        "norad_id": 30504,
        "name": "FENGYUN 1C DEB",
        "group": "fengyun-1c-debris",
        "lat": 80.90451541338426,
        "lon": -53.84823555345262,
        "alt_km": 825.0711642458837,
        "timestamp": "2025-12-22T16:55:17.739986+00:00",
        "meta_object_name": "FENGYUN 1C DEB",
        "meta_object_id": "1999-025AHS",
        "meta_epoch": "2025-12-21T01:44:57.568992",
        "meta_mean_motion": 14.20513799,
        "meta_eccentricity": 0.01125381,
        "meta_inclination": 99.0243,
        "meta_ra_of_asc_node": 41.4256,
        "meta_arg_of_pericenter": 192.7134,
        "meta_mean_anomaly": 197.6009,
        "meta_ephemeris_type": 0,
        "meta_classification_type": "U",
        "meta_norad_cat_id": 30504,
        "meta_element_set_no": 999,
        "meta_rev_at_epoch": 97512,
        "meta_bstar": 0.00041208941,
        "meta_mean_motion_dot": 8.97e-06,
        "meta_mean_motion_ddot": 0,
        "tle_line1": "1 30504U 99025AHS 25355.07288853  .00000897  00000+0  41209-3 0  9990",
        "tle_line2": "2 30504  99.0243  41.4256 0112538 192.7134 197.6009 14.20513799975127"
      },
      "geometry": {
        "type": "Point",
        "coordinates": [
          -53.84823555345262,
          80.90451541338426
        ]
      }
    }
  ]
}